start=new Date('2022-12-04T00:00:00.000Z').valueOf();
sats=[{"MEAN_ELEMENT_THEORY":"SGP4","OBJECT_TYPE":"PAYLOAD","EPOCH":"2022-12-03T16:33:08.942112","MEAN_MOTION_DDOT":"0.0000000000000","CENTER_NAME":"EARTH","SEMIMAJOR_AXIS":"6925.360","RA_OF_ASC_NODE":"107.7242","TIME_SYSTEM":"UTC","OBJECT_ID":"2020-070AH","INCLINATION":"53.0541","EPHEMERIS_TYPE":"0","ARG_OF_PERICENTER":"67.0090","MEAN_ANOMALY":"293.1092","ELEMENT_SET_NO":"999","COUNTRY_CODE":"US","RCS_SIZE":"LARGE","CLASSIFICATION_TYPE":"U","APOAPSIS":"548.489","REV_AT_EPOCH":"12012","ECCENTRICITY":"0.00018240","DECAY_DATE":null,"FILE":"3680595","TLE_LINE2":"2 46563  53.0541 107.7242 0001824  67.0090 293.1092 15.06396106120123","BSTAR":"0.00006686500000","LAUNCH_DATE":"2020-10-06","GP_ID":"219476697","TLE_LINE1":"1 46563U 20070AH  22337.68968683  .00000714  00000-0  66865-4 0  9991","SITE":"AFETR","NORAD_CAT_ID":"46563","MEAN_MOTION":"15.06396106","OBJECT_NAME":"STARLINK-1730","MEAN_MOTION_DOT":"0.00000714","PERIAPSIS":"545.962","PERIOD":"95.592","REF_FRAME":"TEME"},{"RA_OF_ASC_NODE":"107.4872","INCLINATION":"53.0561","TIME_SYSTEM":"UTC","OBJECT_ID":"2020-070AJ","SEMIMAJOR_AXIS":"6925.370","CENTER_NAME":"EARTH","MEAN_MOTION_DDOT":"0.0000000000000","OBJECT_TYPE":"PAYLOAD","EPOCH":"2022-12-03T17:42:08.755776","MEAN_ELEMENT_THEORY":"SGP4","ELEMENT_SET_NO":"999","MEAN_ANOMALY":"295.8010","ARG_OF_PERICENTER":"64.3147","EPHEMERIS_TYPE":"0","TLE_LINE1":"1 46564U 20070AJ  22337.73760134 -.00000447  00000-0 -11093-4 0  9997","NORAD_CAT_ID":"46564","SITE":"AFETR","GP_ID":"219476953","APOAPSIS":"548.362","REV_AT_EPOCH":"12013","FILE":"3680595","TLE_LINE2":"2 46564  53.0561 107.4872 0001628  64.3147 295.8010 15.06393049120130","LAUNCH_DATE":"2020-10-06","BSTAR":"-0.00001109300000","DECAY_DATE":null,"ECCENTRICITY":"0.00016280","CLASSIFICATION_TYPE":"U","RCS_SIZE":"LARGE","COUNTRY_CODE":"US","REF_FRAME":"TEME","PERIOD":"95.593","MEAN_MOTION_DOT":"-0.00000447","PERIAPSIS":"546.107","OBJECT_NAME":"STARLINK-1733","MEAN_MOTION":"15.06393049"},{"MEAN_ELEMENT_THEORY":"SGP4","EPOCH":"2022-12-03T13:59:14.151552","OBJECT_TYPE":"PAYLOAD","MEAN_MOTION_DDOT":"0.0000000000000","SEMIMAJOR_AXIS":"6925.399","CENTER_NAME":"EARTH","RA_OF_ASC_NODE":"108.2056","TIME_SYSTEM":"UTC","OBJECT_ID":"2020-070AK","INCLINATION":"53.0553","EPHEMERIS_TYPE":"0","ARG_OF_PERICENTER":"66.0146","MEAN_ANOMALY":"294.1001","ELEMENT_SET_NO":"999","COUNTRY_CODE":"US","RCS_SIZE":"LARGE","CLASSIFICATION_TYPE":"U","REV_AT_EPOCH":"12010","APOAPSIS":"548.310","ECCENTRICITY":"0.00015110","DECAY_DATE":null,"TLE_LINE2":"2 46565  53.0553 108.2056 0001511  66.0146 294.1001 15.06383602120107","FILE":"3680595","LAUNCH_DATE":"2020-10-06","BSTAR":"-0.00014248000000","GP_ID":"219477198","TLE_LINE1":"1 46565U 20070AK  22337.58280268 -.00002402  00000-0 -14248-3 0  9993","SITE":"AFETR","NORAD_CAT_ID":"46565","MEAN_MOTION":"15.06383602","OBJECT_NAME":"STARLINK-1735","MEAN_MOTION_DOT":"-0.00002402","PERIAPSIS":"546.217","PERIOD":"95.593","REF_FRAME":"TEME"},{"MEAN_MOTION_DDOT":"0.0000000000000","OBJECT_TYPE":"PAYLOAD","EPOCH":"2022-12-03T20:00:08.266464","MEAN_ELEMENT_THEORY":"SGP4","INCLINATION":"53.0564","TIME_SYSTEM":"UTC","OBJECT_ID":"2020-070AL","RA_OF_ASC_NODE":"107.0777","SEMIMAJOR_AXIS":"6925.339","CENTER_NAME":"EARTH","ARG_OF_PERICENTER":"78.3902","EPHEMERIS_TYPE":"0","ELEMENT_SET_NO":"999","MEAN_ANOMALY":"281.7219","BSTAR":"0.00002371800000","TLE_LINE2":"2 46566  53.0564 107.0777 0001176  78.3902 281.7219 15.06403095120146","FILE":"3680595","LAUNCH_DATE":"2020-10-06","DECAY_DATE":null,"ECCENTRICITY":"0.00011760","REV_AT_EPOCH":"12014","APOAPSIS":"548.018","RCS_SIZE":"LARGE","CLASSIFICATION_TYPE":"U","COUNTRY_CODE":"US","NORAD_CAT_ID":"46566","SITE":"AFETR","TLE_LINE1":"1 46566U 20070AL  22337.83342901  .00000072  00000-0  23718-4 0  9997","GP_ID":"219476451","OBJECT_NAME":"STARLINK-1740","MEAN_MOTION":"15.06403095","REF_FRAME":"TEME","PERIOD":"95.592","PERIAPSIS":"546.390","MEAN_MOTION_DOT":"0.00000072"},{"GP_ID":"219476198","TLE_LINE1":"1 46567U 20070AM  22337.66389248 -.00000292  00000-0 -73501-6 0  9997","NORAD_CAT_ID":"46567","SITE":"AFETR","RCS_SIZE":"LARGE","CLASSIFICATION_TYPE":"U","COUNTRY_CODE":"US","APOAPSIS":"548.215","REV_AT_EPOCH":"12012","TLE_LINE2":"2 46567  53.0553 107.8306 0001397  74.9815 285.1329 15.06388918120125","LAUNCH_DATE":"2020-10-06","FILE":"3680595","BSTAR":"-0.00000073501000","DECAY_DATE":null,"ECCENTRICITY":"0.00013970","MEAN_MOTION_DOT":"-0.00000292","PERIAPSIS":"546.280","REF_FRAME":"TEME","PERIOD":"95.593","MEAN_MOTION":"15.06388918","OBJECT_NAME":"STARLINK-1741","SEMIMAJOR_AXIS":"6925.383","CENTER_NAME":"EARTH","RA_OF_ASC_NODE":"107.8306","INCLINATION":"53.0553","OBJECT_ID":"2020-070AM","TIME_SYSTEM":"UTC","MEAN_ELEMENT_THEORY":"SGP4","MEAN_MOTION_DDOT":"0.0000000000000","EPOCH":"2022-12-03T15:56:00.310272","OBJECT_TYPE":"PAYLOAD","MEAN_ANOMALY":"285.1329","ELEMENT_SET_NO":"999","EPHEMERIS_TYPE":"0","ARG_OF_PERICENTER":"74.9815"},{"ELEMENT_SET_NO":"999","MEAN_ANOMALY":"299.3482","EPHEMERIS_TYPE":"0","ARG_OF_PERICENTER":"60.7674","INCLINATION":"53.0562","TIME_SYSTEM":"UTC","OBJECT_ID":"2020-070AP","RA_OF_ASC_NODE":"107.7706","CENTER_NAME":"EARTH","SEMIMAJOR_AXIS":"6925.355","MEAN_MOTION_DDOT":"0.0000000000000","EPOCH":"2022-12-03T16:17:13.136064","OBJECT_TYPE":"PAYLOAD","MEAN_ELEMENT_THEORY":"SGP4","REF_FRAME":"TEME","PERIOD":"95.592","PERIAPSIS":"546.062","MEAN_MOTION_DOT":"0.00000998","OBJECT_NAME":"STARLINK-1747","MEAN_MOTION":"15.06397893","NORAD_CAT_ID":"46569","SITE":"AFETR","TLE_LINE1":"1 46569U 20070AP  22337.67862426  .00000998  00000-0  85876-4 0  9991","GP_ID":"219477452","TLE_LINE2":"2 46569  53.0562 107.7706 0001672  60.7674 299.3482 15.06397893120121","FILE":"3680595","BSTAR":"0.00008587600000","LAUNCH_DATE":"2020-10-06","DECAY_DATE":null,"ECCENTRICITY":"0.00016720","APOAPSIS":"548.378","REV_AT_EPOCH":"12012","RCS_SIZE":"LARGE","CLASSIFICATION_TYPE":"U","COUNTRY_CODE":"US"},{"PERIOD":"95.146","REF_FRAME":"TEME","MEAN_MOTION_DOT":"0.00016586","PERIAPSIS":"523.009","OBJECT_NAME":"STARLINK-1748","MEAN_MOTION":"15.13458539","TLE_LINE1":"1 46570U 20070AQ  22337.77792043  .00016586  00000-0  93130-3 0  9992","SITE":"AFETR","NORAD_CAT_ID":"46570","GP_ID":"219477696","APOAPSIS":"528.319","REV_AT_EPOCH":"12019","DECAY_DATE":null,"ECCENTRICITY":"0.00038460","BSTAR":"0.00093130000000","TLE_LINE2":"2 46570  53.0558 103.1000 0003846 217.7837 142.2886 15.13458539120199","FILE":"3680595","LAUNCH_DATE":"2020-10-06","COUNTRY_CODE":"US","RCS_SIZE":"LARGE","CLASSIFICATION_TYPE":"U","ELEMENT_SET_NO":"999","MEAN_ANOMALY":"142.2886","EPHEMERIS_TYPE":"0","ARG_OF_PERICENTER":"217.7837","RA_OF_ASC_NODE":"103.1000","TIME_SYSTEM":"UTC","OBJECT_ID":"2020-070AQ","INCLINATION":"53.0558","SEMIMAJOR_AXIS":"6903.799","CENTER_NAME":"EARTH","EPOCH":"2022-12-03T18:40:12.325152","OBJECT_TYPE":"PAYLOAD","MEAN_MOTION_DDOT":"0.0000000000000","MEAN_ELEMENT_THEORY":"SGP4"},{"CENTER_NAME":"EARTH","SEMIMAJOR_AXIS":"6925.367","OBJECT_ID":"2020-070AS","TIME_SYSTEM":"UTC","INCLINATION":"53.0559","RA_OF_ASC_NODE":"126.9793","MEAN_ELEMENT_THEORY":"SGP4","EPOCH":"2022-12-03T20:22:40.232928","OBJECT_TYPE":"PAYLOAD","MEAN_MOTION_DDOT":"0.0000000000000","MEAN_ANOMALY":"298.4947","ELEMENT_SET_NO":"999","EPHEMERIS_TYPE":"0","ARG_OF_PERICENTER":"61.6202","GP_ID":"219475952","SITE":"AFETR","NORAD_CAT_ID":"46572","TLE_LINE1":"1 46572U 20070AS  22337.84907677 -.00001000  00000-0 -48259-4 0  9993","COUNTRY_CODE":"US","RCS_SIZE":"LARGE","CLASSIFICATION_TYPE":"U","DECAY_DATE":null,"ECCENTRICITY":"0.00015920","TLE_LINE2":"2 46572  53.0559 126.9793 0001592  61.6202 298.4947 15.06393935119866","FILE":"3680595","BSTAR":"-0.00004825900000","LAUNCH_DATE":"2020-10-06","APOAPSIS":"548.335","REV_AT_EPOCH":"11986","PERIAPSIS":"546.130","MEAN_MOTION_DOT":"-0.00001000","PERIOD":"95.593","REF_FRAME":"TEME","MEAN_MOTION":"15.06393935","OBJECT_NAME":"STARLINK-1531"},{"EPHEMERIS_TYPE":"0","ARG_OF_PERICENTER":"109.3520","ELEMENT_SET_NO":"999","MEAN_ANOMALY":"250.7665","EPOCH":"2022-12-03T16:36:35.639424","OBJECT_TYPE":"PAYLOAD","MEAN_MOTION_DDOT":"0.0000000000000","MEAN_ELEMENT_THEORY":"SGP4","RA_OF_ASC_NODE":"112.6813","OBJECT_ID":"2020-070AT","TIME_SYSTEM":"UTC","INCLINATION":"53.0555","CENTER_NAME":"EARTH","SEMIMAJOR_AXIS":"6920.752","OBJECT_NAME":"STARLINK-1650","MEAN_MOTION":"15.07901057","PERIOD":"95.497","REF_FRAME":"TEME","MEAN_MOTION_DOT":"0.00187558","PERIAPSIS":"541.370","REV_AT_EPOCH":"12005","APOAPSIS":"543.863","ECCENTRICITY":"0.00018010","DECAY_DATE":null,"TLE_LINE2":"2 46573  53.0555 112.6813 0001801 109.3520 250.7665 15.07901057120056","FILE":"3680595","LAUNCH_DATE":"2020-10-06","BSTAR":"0.01179100000000","COUNTRY_CODE":"US","RCS_SIZE":"LARGE","CLASSIFICATION_TYPE":"U","TLE_LINE1":"1 46573U 20070AT  22337.69207916  .00187558  00000-0  11791-1 0  9995","SITE":"AFETR","NORAD_CAT_ID":"46573","GP_ID":"219476698"},{"ARG_OF_PERICENTER":"66.2723","EPHEMERIS_TYPE":"0","ELEMENT_SET_NO":"999","MEAN_ANOMALY":"293.8427","MEAN_MOTION_DDOT":"0.0000000000000","EPOCH":"2022-12-03T19:30:17.427744","OBJECT_TYPE":"PAYLOAD","MEAN_ELEMENT_THEORY":"SGP4","INCLINATION":"53.0540","TIME_SYSTEM":"UTC","OBJECT_ID":"2020-070AU","RA_OF_ASC_NODE":"112.1695","SEMIMAJOR_AXIS":"6925.349","CENTER_NAME":"EARTH","OBJECT_NAME":"STARLINK-1660","MEAN_MOTION":"15.06399922","REF_FRAME":"TEME","PERIOD":"95.592","PERIAPSIS":"546.149","MEAN_MOTION_DOT":"-0.00000033","LAUNCH_DATE":"2020-10-06","TLE_LINE2":"2 46574  53.0540 112.1695 0001537  66.2723 293.8427 15.06399922120073","FILE":"3680595","BSTAR":"0.00001669900000","DECAY_DATE":null,"ECCENTRICITY":"0.00015370","APOAPSIS":"548.278","REV_AT_EPOCH":"12007","CLASSIFICATION_TYPE":"U","RCS_SIZE":"LARGE","COUNTRY_CODE":"US","NORAD_CAT_ID":"46574","SITE":"AFETR","TLE_LINE1":"1 46574U 20070AU  22337.81270171 -.00000033  00000-0  16699-4 0  9991","GP_ID":"219476954"}];
